     3.04           N: GNSS NAV DATA    M: MIXED            RINEX VERSION / TYPE
ssrcrin-15.6.1x                         20250101 151500 UTC PGM / RUN BY / DATE 
    18                                                      LEAP SECONDS        
                                                            END OF HEADER       
E15 2025 01 01 15 10 00-1.484847743995E-04-2.273736754432E-12 0.000000000000E+00
     1.500000000000E+01 1.692500000000E+02 2.564035373794E-09 1.322071233414E+00
     7.927417755127E-06 4.398518940434E-04 4.842877388000E-07 5.440605651855E+03
     3.138000000000E+05 8.195638656616E-08-1.775993356269E+00 8.754432201385E-08
     9.996393050009E-01 3.486562500000E+02-1.183952371363E+00-5.607733584613E-09
     3.167989102319E-10 5.170000000000E+02 2.347000000000E+03
     3.120000000000E+00 0.000000000000E+00 3.026798367500E-09 4.190951585770E-09
     3.144660000000E+05
E19 2025 01 01 15 10 00 1.170846924651E-03 5.606182185147E-11 0.000000000000E+00
     1.500000000000E+01-1.886875000000E+02 2.555820745907E-09-2.118705109441E+00
    -8.627772331238E-06 1.476031029597E-04 1.174025237560E-05 5.440637994766E+03
     3.138000000000E+05 1.303851604462E-08 3.190996994633E-01 2.048909664154E-08
     9.691174942164E-01 9.046875000000E+01-2.130043033231E+00-5.183787354122E-09
     3.346567969417E-10 5.170000000000E+02 2.347000000000E+03
     3.120000000000E+00 0.000000000000E+00-6.286427378654E-09-5.587935447693E-09
     3.144660000000E+05
E07 2025 01 01 15 10 00-1.612952328287E-04-2.074784788419E-12 0.000000000000E+00
     1.500000000000E+01-1.622500000000E+02 2.709755729346E-09-2.427112154872E+00
    -7.642433047295E-06 1.249872148037E-04 1.310184597969E-05 5.440624143600E+03
     3.138000000000E+05-3.539025783539E-08 3.132370962224E-01 5.587935447693E-09
     9.636307731468E-01 6.118750000000E+01-3.121160928195E-01-5.244504168935E-09
     3.478716331070E-10 5.170000000000E+02 2.347000000000E+03
     3.120000000000E+00 0.000000000000E+00 3.725290298462E-09 4.423782229424E-09
     3.144660000000E+05
S23 2025 01 01 15 21 20 0.000000000000E+00 0.000000000000E+00 3.144870000000E+05
     3.866796400000E+04 0.000000000000E+00 0.000000000000E+00 6.300000000000E+01
     1.681330800000E+04 0.000000000000E+00 0.000000000000E+00 3.276700000000E+04
     0.000000000000E+00 0.000000000000E+00 0.000000000000E+00 1.700000000000E+02
S27 2025 01 01 15 22 40 4.917383193970E-07-3.637978807092E-11 3.145360000000E+05
     2.409113824000E+04 3.272500000000E-03 2.875000000000E-07 6.300000000000E+01
     3.462109160000E+04 8.943750000000E-04-2.875000000000E-07 3.276700000000E+04
    -4.860052000000E+02 2.062800000000E-02 2.562500000000E-06 2.140000000000E+02
S28 2025 01 01 15 22 40-2.328306436539E-08-4.365574568510E-11 3.145360000000E+05
     5.091859840000E+03 2.601250000000E-03 8.750000000000E-08 6.300000000000E+01
     4.187452352000E+04 2.687500000000E-04-1.000000000000E-07 3.276700000000E+04
     2.211320000000E+01-5.280000000000E-04-1.250000000000E-07 2.140000000000E+02
S21 2025 01 01 15 22 08 0.000000000000E+00 0.000000000000E+00 3.145370000000E+05
     4.200468400000E+04 0.000000000000E+00 0.000000000000E+00 6.300000000000E+01
    -3.674932960000E+03 0.000000000000E+00 0.000000000000E+00 3.276700000000E+04
     0.000000000000E+00 0.000000000000E+00 0.000000000000E+00 1.860000000000E+02
E27 2025 01 01 15 10 00-5.449570016935E-04-9.904965736496E-12 0.000000000000E+00
     1.500000000000E+01-1.681250000000E+01 3.531218517997E-09 8.821445406095E-01
    -7.208436727524E-07 3.207371337339E-04 6.455928087234E-06 5.440602676392E+03
     3.138000000000E+05 1.490116119385E-08 2.413539143879E+00 7.078051567078E-08
     9.642040907420E-01 2.031875000000E+02 5.534983424677E-01-5.534873406837E-09
    -5.803813180686E-10 2.580000000000E+02 2.347000000000E+03
     3.120000000000E+00 0.000000000000E+00-2.328306436539E-10 0.000000000000E+00
     3.145400000000E+05
E30 2025 01 01 15 10 00-1.090432284400E-03-3.993250174972E-11 0.000000000000E+00
     1.500000000000E+01-2.131250000000E+01 3.479073488804E-09 1.240966311937E+00
    -1.071020960808E-06 5.765027599409E-04 6.515532732010E-06 5.440612840652E+03
     3.138000000000E+05-2.235174179077E-08 2.416157969123E+00 3.911554813385E-08
     9.620339834341E-01 2.006250000000E+02 9.730759559708E-01-5.505229314898E-09
    -6.228830884380E-10 2.580000000000E+02 2.347000000000E+03
     3.120000000000E+00 0.000000000000E+00 6.984919309616E-10 0.000000000000E+00
     3.145400000000E+05
E15 2025 01 01 15 10 00-1.484862295911E-04-2.273736754432E-12 0.000000000000E+00
     1.500000000000E+01 1.692500000000E+02 2.564035373794E-09 1.322071233414E+00
     7.927417755127E-06 4.398518940434E-04 4.842877388000E-07 5.440605651855E+03
     3.138000000000E+05 8.195638656616E-08-1.775993356269E+00 8.754432201385E-08
     9.996393050009E-01 3.486562500000E+02-1.183952371363E+00-5.607733584613E-09
     3.167989102319E-10 2.580000000000E+02 2.347000000000E+03
     3.120000000000E+00 0.000000000000E+00 3.026798367500E-09 0.000000000000E+00
     3.145400000000E+05
E19 2025 01 01 15 10 00 1.170845585875E-03 5.601918928733E-11 0.000000000000E+00
     1.500000000000E+01-1.886875000000E+02 2.555820745907E-09-2.118705109441E+00
    -8.627772331238E-06 1.476031029597E-04 1.174025237560E-05 5.440637994766E+03
     3.138000000000E+05 1.303851604462E-08 3.190996994633E-01 2.048909664154E-08
     9.691174942164E-01 9.046875000000E+01-2.130043033231E+00-5.183787354122E-09
     3.346567969417E-10 2.580000000000E+02 2.347000000000E+03
     3.120000000000E+00 0.000000000000E+00-6.286427378654E-09 0.000000000000E+00
     3.145400000000E+05
E07 2025 01 01 15 10 00-1.612968044356E-04-2.074784788419E-12 0.000000000000E+00
     1.500000000000E+01-1.622500000000E+02 2.709755729346E-09-2.427112154872E+00
    -7.642433047295E-06 1.249872148037E-04 1.310184597969E-05 5.440624143600E+03
     3.138000000000E+05-3.539025783539E-08 3.132370962224E-01 5.587935447693E-09
     9.636307731468E-01 6.118750000000E+01-3.121160928195E-01-5.244504168935E-09
     3.478716331070E-10 2.580000000000E+02 2.347000000000E+03
     3.120000000000E+00 0.000000000000E+00 3.725290298462E-09 0.000000000000E+00
     3.145400000000E+05
S36 2025 01 01 15 22 24 0.000000000000E+00 0.000000000000E+00 3.145440000000E+05
     4.200368800000E+04 0.000000000000E+00 0.000000000000E+00 6.300000000000E+01
     3.674846960000E+03 0.000000000000E+00 0.000000000000E+00 3.276700000000E+04
     0.000000000000E+00 0.000000000000E+00 0.000000000000E+00 3.000000000000E+00
S44 2025 01 01 15 22 40 8.409842848778E-07 0.000000000000E+00 3.145520000000E+05
     7.301108640000E+03 4.517500000000E-03-1.125000000000E-07 6.300000000000E+01
     4.153832616000E+04-1.836875000000E-03-2.125000000000E-07 3.276700000000E+04
     5.279732000000E+02 1.350240000000E-01-1.375000000000E-06 6.000000000000E+01
S23 2025 01 01 15 23 28 0.000000000000E+00 0.000000000000E+00 3.146120000000E+05
     3.866796400000E+04 0.000000000000E+00 0.000000000000E+00 6.300000000000E+01
     1.681330800000E+04 0.000000000000E+00 0.000000000000E+00 3.276700000000E+04
     0.000000000000E+00 0.000000000000E+00 0.000000000000E+00 1.710000000000E+02
E02 2025 01 01 15 10 00 1.867642276920E-04 2.884803507186E-12 0.000000000000E+00
     1.500000000000E+01-2.306250000000E+01 3.453715289676E-09 2.318675587585E+00
    -1.193955540657E-06 5.096172681078E-04 6.290152668953E-06 5.440614639282E+03
     3.138000000000E+05-1.192092895508E-07 2.416727708421E+00-3.725290298462E-08
     9.646329349365E-01 2.040625000000E+02 6.904313382537E-01-5.573803599864E-09
    -6.778853795042E-10 5.170000000000E+02 2.347000000000E+03
     3.120000000000E+00 0.000000000000E+00-3.958120942116E-09-3.958120942116E-09
     3.146150000000E+05
E02 2025 01 01 15 10 00 1.867642276920E-04 2.884803507186E-12 0.000000000000E+00
     1.500000000000E+01-2.306250000000E+01 3.453715289676E-09 2.318675587585E+00
    -1.193955540657E-06 5.096172681078E-04 6.290152668953E-06 5.440614639282E+03
     3.138000000000E+05-1.192092895508E-07 2.416727708421E+00-3.725290298462E-08
     9.646329349365E-01 2.040625000000E+02 6.904313382537E-01-5.573803599864E-09
    -6.778853795042E-10 5.170000000000E+02 2.347000000000E+03
     3.120000000000E+00 0.000000000000E+00-2.793967723846E-09-3.259629011154E-09
     3.146160000000E+05
S44 2025 01 01 15 24 48 8.409842848778E-07 0.000000000000E+00 3.146720000000E+05
     7.301684960000E+03 4.486875000000E-03-1.125000000000E-07 6.300000000000E+01
     4.153808736000E+04-1.893750000000E-03-2.125000000000E-07 3.276700000000E+04
     5.452328000000E+02 1.346600000000E-01-1.375000000000E-06 6.000000000000E+01
G26 2025 01 01 15 59 44-3.116251900792E-05-1.477928890381E-11 0.000000000000E+00
     1.300000000000E+01-1.109375000000E+01 5.780240770229E-09 5.540898251167E-01
    -3.427267074585E-07 9.795367717743E-03 5.325302481651E-06 5.153741353989E+03
     3.167840000000E+05-1.676380634308E-08 2.239679497630E+00 1.415610313416E-07
     9.296038881790E-01 2.573437500000E+02 6.030882210223E-01-8.610358655999E-09
    -4.503759028213E-10 1.000000000000E+00 2.347000000000E+03 0.000000000000E+00
     2.000000000000E+00 0.000000000000E+00 6.519258022308E-09 1.300000000000E+01
     3.146880000000E+05 4.000000000000E+00
S36 2025 01 01 15 24 48 0.000000000000E+00 0.000000000000E+00 3.146880000000E+05
     4.200368800000E+04 0.000000000000E+00 0.000000000000E+00 6.300000000000E+01
     3.674846960000E+03 0.000000000000E+00 0.000000000000E+00 3.276700000000E+04
     0.000000000000E+00 0.000000000000E+00 0.000000000000E+00 4.000000000000E+00
